[{"OBJECT_NAME":"STARLINK-30579","OBJECT_ID":"2023-158L","EPOCH":"2026-03-09T03:39:21.045888","MEAN_MOTION":15.26742207,"ECCENTRICITY":0.00019774,"INCLINATION":43.0056,"RA_OF_ASC_NODE":4.274,"ARG_OF_PERICENTER":261.2408,"MEAN_ANOMALY":98.822,"EPHEMERIS_TYPE":0,"CLASSIFICATION_TYPE":"U","NORAD_CAT_ID":58061,"ELEMENT_SET_NO":999,"REV_AT_EPOCH":13378,"BSTAR":0.00026756749,"MEAN_MOTION_DOT":6.924e-5,"MEAN_MOTION_DDOT":0},{"OBJECT_NAME":"HERMES-3","OBJECT_ID":"2025-052BR","EPOCH":"2026-03-09T22:30:01.073952","MEAN_MOTION":15.30039786,"ECCENTRICITY":0.00079928,"INCLINATION":97.3987,"RA_OF_ASC_NODE":324.6131,"ARG_OF_PERICENTER":112.9583,"MEAN_ANOMALY":247.2502,"EPHEMERIS_TYPE":0,"CLASSIFICATION_TYPE":"U","NORAD_CAT_ID":63835,"ELEMENT_SET_NO":999,"REV_AT_EPOCH":5486,"BSTAR":0.0006995793,"MEAN_MOTION_DOT":0.00020316,"MEAN_MOTION_DDOT":0}]
